{
  "type": "FeatureCollection",
  "features": [
    {
      "type": "Feature",
      "properties": {
        "norad_id": 37781,
        "name": "HAIYANG-2A",
        "group": "resource",
        "lat": 73.79057650406364,
        "lon": -143.6493636618034,
        "alt_km": 960.0210954817485,
        "timestamp": "2025-12-27T03:58:43.834932+00:00",
        "meta_object_name": "HAIYANG-2A",
        "meta_object_id": "2011-043A",
        "meta_epoch": "2025-12-26T20:30:49.696704",
        "meta_mean_motion": 13.78835276,
        "meta_eccentricity": 0.000156,
        "meta_inclination": 99.3383,
        "meta_ra_of_asc_node": 1.5716,
        "meta_arg_of_pericenter": 65.3656,
        "meta_mean_anomaly": 294.7658,
        "meta_ephemeris_type": 0,
        "meta_classification_type": "U",
        "meta_norad_cat_id": 37781,
        "meta_element_set_no": 999,
        "meta_rev_at_epoch": 72293,
        "meta_bstar": -0.000244,
        "meta_mean_motion_dot": -2.92e-06,
        "meta_mean_motion_ddot": 0,
        "tle_line1": "1 37781U 11043A   25360.85474186 -.00000292  00000+0 -24400-3 0  9991",
        "tle_line2": "2 37781  99.3383   1.5716 0001560  65.3656 294.7658 13.78835276722930"
      },
      "geometry": {
        "type": "Point",
        "coordinates": [
          -143.6493636618034,
          73.79057650406364
        ]
      }
    },
    {
      "type": "Feature",
      "properties": {
        "norad_id": 37791,
        "name": "RASAT",
        "group": "resource",
        "lat": 20.77556451718979,
        "lon": -86.7082860435113,
        "alt_km": 678.6868254148267,
        "timestamp": "2025-12-27T03:58:43.834943+00:00",
        "meta_object_name": "RASAT",
        "meta_object_id": "2011-044D",
        "meta_epoch": "2025-12-26T21:08:24.493920",
        "meta_mean_motion": 14.67928731,
        "meta_eccentricity": 0.0021226,
        "meta_inclination": 98.0637,
        "meta_ra_of_asc_node": 89.928,
        "meta_arg_of_pericenter": 22.1214,
        "meta_mean_anomaly": 71.7064,
        "meta_ephemeris_type": 0,
        "meta_classification_type": "U",
        "meta_norad_cat_id": 37791,
        "meta_element_set_no": 999,
        "meta_rev_at_epoch": 76790,
        "meta_bstar": 0.00011803,
        "meta_mean_motion_dot": 6.28e-06,
        "meta_mean_motion_ddot": 0,
        "tle_line1": "1 37791U 11044D   25360.88083905  .00000628  00000+0  11803-3 0  9995",
        "tle_line2": "2 37791  98.0637  89.9280 0021226  22.1214  71.7064 14.67928731767905"
      },
      "geometry": {
        "type": "Point",
        "coordinates": [
          -86.7082860435113,
          20.77556451718979
        ]
      }
    },
    {
      "type": "Feature",
      "properties": {
        "norad_id": 37841,
        "name": "SRMSAT",
        "group": "resource",
        "lat": 19.74359056478155,
        "lon": 119.47227685251195,
        "alt_km": 840.5417860322887,
        "timestamp": "2025-12-27T03:58:43.834952+00:00",
        "meta_object_name": "SRMSAT",
        "meta_object_id": "2011-058D",
        "meta_epoch": "2025-12-26T18:04:39.351072",
        "meta_mean_motion": 14.11516169,
        "meta_eccentricity": 0.0011981,
        "meta_inclination": 19.9732,
        "meta_ra_of_asc_node": 23.141,
        "meta_arg_of_pericenter": 106.5213,
        "meta_mean_anomaly": 50.9064,
        "meta_ephemeris_type": 0,
        "meta_classification_type": "U",
        "meta_norad_cat_id": 37841,
        "meta_element_set_no": 999,
        "meta_rev_at_epoch": 73342,
        "meta_bstar": 9.6487e-05,
        "meta_mean_motion_dot": 4.42e-06,
        "meta_mean_motion_ddot": 0,
        "tle_line1": "1 37841U 11058D   25360.75323323  .00000442  00000+0  96487-4 0  9999",
        "tle_line2": "2 37841  19.9732  23.1410 0011981 106.5213  50.9064 14.11516169733423"
      },
      "geometry": {
        "type": "Point",
        "coordinates": [
          119.47227685251195,
          19.74359056478155
        ]
      }
    },
    {
      "type": "Feature",
      "properties": {
        "norad_id": 38012,
        "name": "PLEIADES 1A",
        "group": "resource",
        "lat": -9.067076586109579,
        "lon": -107.60498964984825,
        "alt_km": 702.169394946367,
        "timestamp": "2025-12-27T03:58:43.834961+00:00",
        "meta_object_name": "PLEIADES 1A",
        "meta_object_id": "2011-076F",
        "meta_epoch": "2025-12-26T21:07:37.926912",
        "meta_mean_motion": 14.58574102,
        "meta_eccentricity": 0.0001058,
        "meta_inclination": 98.1803,
        "meta_ra_of_asc_node": 73.4294,
        "meta_arg_of_pericenter": 76.0874,
        "meta_mean_anomaly": 54.7869,
        "meta_ephemeris_type": 0,
        "meta_classification_type": "U",
        "meta_norad_cat_id": 38012,
        "meta_element_set_no": 999,
        "meta_rev_at_epoch": 74687,
        "meta_bstar": 9.475e-05,
        "meta_mean_motion_dot": 3.95e-06,
        "meta_mean_motion_ddot": 0,
        "tle_line1": "1 38012U 11076F   25360.88030008  .00000395  00000+0  94750-4 0  9997",
        "tle_line2": "2 38012  98.1803  73.4294 0001058  76.0874  54.7869 14.58574102746878"
      },
      "geometry": {
        "type": "Point",
        "coordinates": [
          -107.60498964984825,
          -9.067076586109579
        ]
      }
    },
    {
      "type": "Feature",
      "properties": {
        "norad_id": 38038,
        "name": "ZIYUAN 1-02C (ZY 1-02C)",
        "group": "resource",
        "lat": 66.96771500486669,
        "lon": -92.6698550854977,
        "alt_km": 753.1656822694886,
        "timestamp": "2025-12-27T03:58:43.834970+00:00",
        "meta_object_name": "ZIYUAN 1-02C (ZY 1-02C)",
        "meta_object_id": "2011-079A",
        "meta_epoch": "2025-12-26T21:17:53.318688",
        "meta_mean_motion": 14.38027598,
        "meta_eccentricity": 0.0007569,
        "meta_inclination": 98.4311,
        "meta_ra_of_asc_node": 66.6389,
        "meta_arg_of_pericenter": 101.5099,
        "meta_mean_anomaly": 9.7226,
        "meta_ephemeris_type": 0,
        "meta_classification_type": "U",
        "meta_norad_cat_id": 38038,
        "meta_element_set_no": 999,
        "meta_rev_at_epoch": 73444,
        "meta_bstar": 0.00018222,
        "meta_mean_motion_dot": 5.08e-06,
        "meta_mean_motion_ddot": 0,
        "tle_line1": "1 38038U 11079A   25360.88742267  .00000508  00000+0  18222-3 0  9990",
        "tle_line2": "2 38038  98.4311  66.6389 0007569 101.5099   9.7226 14.38027598734445"
      },
      "geometry": {
        "type": "Point",
        "coordinates": [
          -92.6698550854977,
          66.96771500486669
        ]
      }
    },
    {
      "type": "Feature",
      "properties": {
        "norad_id": 38338,
        "name": "ARIRANG-3 (KOMPSAT-3)",
        "group": "resource",
        "lat": -68.5988509054101,
        "lon": 113.90084280765963,
        "alt_km": 692.1912840880859,
        "timestamp": "2025-12-27T03:58:43.834980+00:00",
        "meta_object_name": "ARIRANG-3 (KOMPSAT-3)",
        "meta_object_id": "2012-025B",
        "meta_epoch": "2025-12-26T20:15:57.216672",
        "meta_mean_motion": 14.61731065,
        "meta_eccentricity": 0.0004654,
        "meta_inclination": 98.3342,
        "meta_ra_of_asc_node": 315.5416,
        "meta_arg_of_pericenter": 287.4576,
        "meta_mean_anomaly": 72.6115,
        "meta_ephemeris_type": 0,
        "meta_classification_type": "U",
        "meta_norad_cat_id": 38338,
        "meta_element_set_no": 999,
        "meta_rev_at_epoch": 72616,
        "meta_bstar": 0.00014314,
        "meta_mean_motion_dot": 6.65e-06,
        "meta_mean_motion_ddot": 0,
        "tle_line1": "1 38338U 12025B   25360.84441223  .00000665  00000+0  14314-3 0  9991",
        "tle_line2": "2 38338  98.3342 315.5416 0004654 287.4576  72.6115 14.61731065726167"
      },
      "geometry": {
        "type": "Point",
        "coordinates": [
          113.90084280765963,
          -68.5988509054101
        ]
      }
    },
    {
      "type": "Feature",
      "properties": {
        "norad_id": 38709,
        "name": "EXACTVIEW-1 (ADS-1B)",
        "group": "resource",
        "lat": 39.71912501804411,
        "lon": -62.606608908019844,
        "alt_km": 812.8163141269688,
        "timestamp": "2025-12-27T03:58:43.834989+00:00",
        "meta_object_name": "EXACTVIEW-1 (ADS-1B)",
        "meta_object_id": "2012-039C",
        "meta_epoch": "2025-12-26T20:35:03.619392",
        "meta_mean_motion": 14.24913654,
        "meta_eccentricity": 0.001007,
        "meta_inclination": 98.9638,
        "meta_ra_of_asc_node": 109.5441,
        "meta_arg_of_pericenter": 311.5472,
        "meta_mean_anomaly": 48.4842,
        "meta_ephemeris_type": 0,
        "meta_classification_type": "U",
        "meta_norad_cat_id": 38709,
        "meta_element_set_no": 999,
        "meta_rev_at_epoch": 69816,
        "meta_bstar": 9.226e-05,
        "meta_mean_motion_dot": 1.69e-06,
        "meta_mean_motion_ddot": 0,
        "tle_line1": "1 38709U 12039C   25360.85768078  .00000169  00000+0  92260-4 0  9995",
        "tle_line2": "2 38709  98.9638 109.5441 0010070 311.5472  48.4842 14.24913654698166"
      },
      "geometry": {
        "type": "Point",
        "coordinates": [
          -62.606608908019844,
          39.71912501804411
        ]
      }
    }
  ]
}